{"fetched_at":"2026-03-29T02:12:04Z","count":15717,"tles":[{"name":"SHIYAN-12 01 (SY-12 01)","line1":"1 50321U 21129A   26087.70754308 -.00000376  00000+0  00000+0 0  9998","line2":"2 50321   3.4676  80.9876 0003546 255.7540 226.8742  1.00083498 15698","category":"Other"}]}