{
  "norad_id": 50321,
  "name": "SHIYAN-12 01 (SY-12 01)",
  "history": [
    {
      "epoch": "2026-03-28T16:58:51.722112",
      "apogee_km": 35854.43173698428,
      "perigee_km": 35824.491016215594,
      "latitude_deg": 3.4451038817420634,
      "longitude_deg": 0.024135679937899113,
      "semi_major_axis_km": 42217.59837659994,
      "eccentricity": 0.0003546,
      "inclination_deg": 3.4676,
      "raan_deg": 80.9876,
      "arg_perigee_deg": 255.754,
      "mean_anomaly_deg": 226.8742,
      "mean_motion_rev_day": 1.00083498
    }
  ]
}